NORAD_CAT_ID,OBJECT_NAME,OBJECT_TYPE,EPOCH,MEAN_MOTION,ECCENTRICITY,INCLINATION,RA_OF_ASC_NODE,ARG_OF_PERICENTER,MEAN_ANOMALY,BSTAR,MEAN_MOTION_DOT,MEAN_MOTION_DDOT,TLE_LINE0,TLE_LINE1,TLE_LINE2,SEMIMAJOR_AXIS,PERIOD,APOGEE,PERIGEE,DECAYED
49735.0,STARLINK-3113,PAYLOAD,2023-01-16 20:15:35,15.088287,0.0001955,53.2135,272.0005,90.1375,269.9841,-0.00019905,-3.454e-05,0.0,0 STARLINK-3113,1 49735U 21115M   23016.84416426 -.00003454  00000-0 -19905-3 0  9990,2 49735  53.2135 272.0005 0001955  90.1375 269.9841 15.08828700 63210,6917.915,95.438,541.132,538.427,0.0
49735.0,STARLINK-3113,PAYLOAD,2023-01-17 02:37:08,15.08831617,0.0001563,53.2152,270.8116,90.8316,269.2855,0.0005819,8.983e-05,0.0,0 STARLINK-3113,1 49735U 21115M   23017.10912752  .00008983  00000-0  58190-3 0  9992,2 49735  53.2152 270.8116 0001563  90.8316 269.2855 15.08831617 62145,6917.906,95.438,540.852,538.69,0.0
49735.0,STARLINK-3113,PAYLOAD,2023-01-17 21:41:47,15.08834677,0.0001505,53.2162,267.243,96.4253,263.691,0.00078632,0.00012247,0.0,0 STARLINK-3113,1 49735U 21115M   23017.90401713  .00012247  00000-0  78632-3 0  9991,2 49735  53.2162 267.2430 0001505  96.4253 263.6910 15.08834677 63378,6917.897,95.438,540.803,538.721,0.0
49735.0,STARLINK-3113,PAYLOAD,2023-01-18 02:27:56,15.08841852,0.0001365,53.216,266.3499,94.6792,265.4356,0.00077406,0.00012053,0.0,0 STARLINK-3113,1 49735U 21115M   23018.10273603  .00012053  00000-0  77406-3 0  9992,2 49735  53.2160 266.3499 0001365  94.6792 265.4356 15.08841852 62290,6917.875,95.437,540.684,538.795,0.0
49735.0,STARLINK-3113,PAYLOAD,2023-01-18 21:32:33,15.08860813,0.0001463,53.2174,262.7804,99.3869,260.7289,0.00080551,0.00012562,0.0,0 STARLINK-3113,1 49735U 21115M   23018.89761004  .00012562  00000-0  80551-3 0  9995,2 49735  53.2174 262.7804 0001463  99.3869 260.7289 15.08860813 62416,6917.816999999999,95.436,540.694,538.67,0.0
49735.0,STARLINK-3113,PAYLOAD,2023-01-18 23:07:56,15.0886795,0.0001203,53.216,262.4854,90.2955,269.8175,0.0011921,0.0001875,0.0,0 STARLINK-3113,1 49735U 21115M   23018.96384884  .00018750  00000-0  11921-2 0  9999,2 49735  53.2160 262.4854 0001203  90.2955 269.8175 15.08867950 63538,6917.795,95.436,540.492,538.828,0.0
49735.0,STARLINK-3113,PAYLOAD,2023-01-19 08:40:15,15.08853405,0.0001135,53.2165,260.6993,72.9178,287.1938,0.00018639,2.681e-05,0.0,0 STARLINK-3113,1 49735U 21115M   23019.36128603  .00002681  00000-0  18639-3 0  9999,2 49735  53.2165 260.6993 0001135  72.9178 287.1938 15.08853405 63591,6917.839,95.437,540.49,538.919,0.0
49735.0,STARLINK-3113,PAYLOAD,2023-01-19 16:37:11,15.08832206,0.0001431999999999,53.2163,259.2167,83.3181,276.7974,-0.00014761,-2.636e-05,0.0,0 STARLINK-3113,1 49735U 21115M   23019.69249207 -.00002636  00000-0 -14761-3 0  9993,2 49735  53.2163 259.2167 0001432  83.3181 276.7974 15.08832206 63642,6917.904,95.438,540.76,538.779,0.0
49735.0,STARLINK-3113,PAYLOAD,2023-01-20 08:31:03,15.08837961,0.0001449,53.2168,256.243,87.1727,272.9431,0.00026766,3.974e-05,0.0,0 STARLINK-3113,1 49735U 21115M   23020.35489640  .00003974  00000-0  26766-3 0  9997,2 49735  53.2168 256.2430 0001449  87.1727 272.9431 15.08837961 62630,6917.887,95.438,540.754,538.749,0.0
49735.0,STARLINK-3113,PAYLOAD,2023-01-20 22:49:30,15.08866059,0.0001193999999999,53.2151,253.5658,80.0834,280.0293,0.0014620999999999,0.00023075,0.0,0 STARLINK-3113,1 49735U 21115M   23020.95105207  .00023075  00000-0  14621-2 0  9997,2 49735  53.2151 253.5658 0001194  80.0834 280.0293 15.08866059 63831,6917.801,95.436,540.492,538.84,0.0
49735.0,STARLINK-3113,PAYLOAD,2023-01-21 08:21:49,15.08861386,0.0001211999999999,53.2135,251.7774,82.5914,277.5215,0.00080978,0.00012631,0.0,0 STARLINK-3113,1 49735U 21115M   23021.34848933  .00012631  00000-0  80978-3 0  9996,2 49735  53.2135 251.7774 0001212  82.5914 277.5215 15.08861386 63898,6917.815,95.436,540.518,538.842,0.0
49735.0,STARLINK-3113,PAYLOAD,2023-01-21 21:04:54,15.088582999999998,0.0001182,53.215,249.4024,84.0901,276.0226,0.00057752,8.92e-05,0.0,0 STARLINK-3113,1 49735U 21115M   23021.87840672  .00008920  00000-0  57752-3 0  9996,2 49735  53.2150 249.4024 0001182  84.0901 276.0226 15.08858300 63973,6917.8240000000005,95.436,540.507,538.872,0.0
49735.0,STARLINK-3113,PAYLOAD,2023-01-22 14:34:09,15.08829572,0.0001295,53.2142,246.1306,81.1527,278.9612,5.6809e-06,-1.97e-06,0.0,0 STARLINK-3113,1 49735U 21115M   23022.60705279 -.00000197  00000-0  56809-5 0  9994,2 49735  53.2142 246.1306 0001295  81.1527 278.9612 15.08829572 64080,6917.911999999999,95.438,540.673,538.881,0.0
49735.0,STARLINK-3113,PAYLOAD,2023-01-23 00:06:28,15.0883684,0.0001219,53.2144,244.3465,79.4533,280.6597,0.00066767,0.00010353,0.0,0 STARLINK-3113,1 49735U 21115M   23023.00449568  .00010353  00000-0  66767-3 0  9991,2 49735  53.2144 244.3465 0001219  79.4533 280.6597 15.08836840 64146,6917.89,95.438,540.5980000000001,538.9119999999999,0.0
49735.0,STARLINK-3113,PAYLOAD,2023-01-24 19:01:52,15.08847551,0.000152,53.2144,236.3123,124.8332,235.2804,0.00053422,8.226e-05,0.0,0 STARLINK-3113,1 49735U 21115M   23024.79297145  .00008226  00000-0  53422-3 0  9990,2 49735  53.2144 236.3123 0001520 124.8332 235.2804 15.08847551 64413,6917.857,95.437,540.774,538.6709999999999,0.0
49735.0,STARLINK-3113,PAYLOAD,2023-01-24 23:48:02,15.08841495,0.0001293,53.2152,235.4226,85.7757,274.3383,0.0001299,1.7800000000000002e-05,0.0,0 STARLINK-3113,1 49735U 21115M   23024.99169555  .00001780  00000-0  12990-3 0  9998,2 49735  53.2152 235.4226 0001293  85.7757 274.3383 15.08841495 64449,6917.876,95.437,540.635,538.846,0.0
49735.0,STARLINK-3113,PAYLOAD,2023-01-25 20:28:03,15.08840425,0.0001093,53.2156,231.5563,72.6411,287.4701,-7.555599999999999e-06,-4.08e-06,0.0,0 STARLINK-3113,1 49735U 21115M   23025.85281675 -.00000408  00000-0 -75556-5 0  9999,2 49735  53.2156 231.5563 0001093  72.6411 287.4701 15.08840425 63466,6917.879,95.438,540.5,538.988,0.0
49735.0,STARLINK-3113,PAYLOAD,2023-01-26 06:00:22,15.08843847,0.0001065,53.2152,229.7738,78.9349,281.1763,5.2974e-05,5.55e-06,0.0,0 STARLINK-3113,1 49735U 21115M   23026.25025536  .00000555  00000-0  52974-4 0  9995,2 49735  53.2152 229.7738 0001065  78.9349 281.1763 15.08843847 64633,6917.869000000001,95.437,540.47,538.997,0.0
49735.0,STARLINK-3113,PAYLOAD,2023-01-26 12:21:54,15.08840807,0.0001127,53.2154,228.5851,79.564,280.5479,0.0001229,1.669e-05,0.0,0 STARLINK-3113,1 49735U 21115M   23026.51521776  .00001669  00000-0  12290-3 0  9994,2 49735  53.2154 228.5851 0001127  79.5640 280.5479 15.08840807 63569,6917.878000000001,95.438,540.523,538.9630000000001,0.0
49735.0,STARLINK-3113,PAYLOAD,2023-01-26 21:54:15,15.08811855,0.0001111,53.2159,226.8006,90.8012,269.3107,0.0008857,0.00013825,0.0,0 STARLINK-3113,1 49735U 21115M   23026.91267373  .00013825  00000-0  88570-3 0  9999,2 49735  53.2159 226.8006 0001111  90.8012 269.3107 15.08811855 64733,6917.965999999999,95.439,540.6,539.063,0.0
49735.0,STARLINK-3113,PAYLOAD,2023-01-27 12:12:42,15.08832922,0.0001135,53.2159,224.1244,81.1368,278.9753,6.7154e-05,7.81e-06,0.0,0 STARLINK-3113,1 49735U 21115M   23027.50882391  .00000781  00000-0  67154-4 0  9991,2 49735  53.2159 224.1244 0001135  81.1368 278.9753 15.08832922 64822,6917.901999999999,95.438,540.552,538.982,0.0
49735.0,STARLINK-3113,PAYLOAD,2023-01-27 20:09:38,15.08838177,0.0001078,53.2165,222.6379,82.57600000000001,277.5355,7.8408e-05,9.6e-06,0.0,0 STARLINK-3113,1 49735U 21115M   23027.84002368  .00000960  00000-0  78408-4 0  9999,2 49735  53.2165 222.6379 0001078  82.5760 277.5355 15.08838177 63761,6917.886,95.438,540.497,539.005,0.0
49735.0,STARLINK-3113,PAYLOAD,2023-01-28 13:38:52,15.0884204,0.0001067,53.2163,219.3667,87.6225,272.4889,9.3444e-05,1.2e-05,0.0,0 STARLINK-3113,1 49735U 21115M   23028.56866005  .00001200  00000-0  93444-4 0  9990,2 49735  53.2163 219.3667 0001067  87.6225 272.4889 15.08842040 64987,6917.874,95.437,540.477,539.001,0.0
49735.0,STARLINK-3113,PAYLOAD,2023-01-28 21:35:47,15.08845882,0.0001081,53.2163,217.88,88.0148,272.0968,0.00013982,1.938e-05,0.0,0 STARLINK-3113,1 49735U 21115M   23028.89985606  .00001938  00000-0  13982-3 0  9991,2 49735  53.2163 217.8800 0001081  88.0148 272.0968 15.08845882 63928,6917.862,95.437,540.475,538.98,0.0
49735.0,STARLINK-3113,PAYLOAD,2023-01-29 13:29:39,15.08835849,0.0001098,53.2163,214.9063,93.4814,266.6303,4.0879e-05,3.63e-06,0.0,0 STARLINK-3113,1 49735U 21115M   23029.56226502  .00000363  00000-0  40879-4 0  9996,2 49735  53.2163 214.9063 0001098  93.4814 266.6303 15.08835849 65134,6917.893,95.438,540.518,538.998,0.0
49735.0,STARLINK-3113,PAYLOAD,2023-01-29 21:26:35,15.0883938,0.0001104,53.2164,213.4194,92.2679,267.844,5.6931e-05,6.18e-06,0.0,0 STARLINK-3113,1 49735U 21115M   23029.89346231  .00000618  00000-0  56931-4 0  9993,2 49735  53.2164 213.4194 0001104  92.2679 267.8440 15.08839380 64079,6917.882,95.438,540.511,538.984,0.0
49735.0,STARLINK-3113,PAYLOAD,2023-01-30 11:45:03,15.08841032,0.0001177,53.2169,210.7433,90.7636,269.3491,2.1101e-05,4.8e-07,0.0,0 STARLINK-3113,1 49735U 21115M   23030.48962223  .00000048  00000-0  21101-4 0  9993,2 49735  53.2169 210.7433 0001177  90.7636 269.3491 15.08841032 64166,6917.877,95.437,540.556,538.928,0.0
49735.0,STARLINK-3113,PAYLOAD,2023-01-30 21:17:21,15.08845374,0.0001154,53.2166,208.9589,91.0693,269.0431,2.9998e-05,1.9e-06,0.0,0 STARLINK-3113,1 49735U 21115M   23030.88705799  .00000190  00000-0  29998-4 0  9990,2 49735  53.2166 208.9589 0001154  91.0693 269.0431 15.08845374 65330,6917.864,95.437,540.527,538.931,0.0
49735.0,STARLINK-3113,PAYLOAD,2023-01-31 05:14:18,15.08827291,0.0001164,53.2162,207.4719,95.828,264.2845,0.00020078,2.908e-05,0.0,0 STARLINK-3113,1 49735U 21115M   23031.21826583  .00002908  00000-0  20078-3 0  9991,2 49735  53.2162 207.4719 0001164  95.8280 264.2845 15.08827291 65389,6917.919,95.438,540.589,538.979,0.0
